STARLINK-37218          
1 68403U 26063Z   26092.75002315 -.01865503  10587-2 -34726-2 0  9997
2 68403  97.2814 233.5637 0001616  71.1878 127.3881 16.01196804  2322
STARLINK-37188          
1 68404U 26063AA  26092.75002315 -.01863513  10549-2 -34952-2 0  9996
2 68404  97.2811 233.5623 0001599  68.4936 127.6824 16.01065014  2327
SHIYAN-33               
1 68405U 26064A   26093.70715326  .00009429  00000+0  40028-3 0  9992
2 68405  97.4654 169.6174 0013654 202.2158 157.8489 15.23216208  1152
LPNTSAT-001 (IOD-1)     
1 68408U 26065A   26091.17010600  .00004750  00000+0  23469-3 0  9990
2 68408  97.4137 333.2788 0015408 273.4606  86.4866 15.18233471   574
LPNTSAT-002 (IOD-2)     
1 68409U 26065B   26092.42247422  .00001915  00000+0  96696-4 0  9997
2 68409  97.4055 334.5080 0012738 262.3917  97.5871 15.18229138   741
ELECTRON R/B            
1 68410U 26065C   26093.36915547  .13281109  16595-5  48423-3 0  9998
2 68410  97.3609 336.1707 0069854 198.0172 161.8648 16.33068968   882
ELECTRON KICK STAGE R/B 
1 68411U 26065D   26093.44277751  .00267226  22379-5  34497-3 0  9999
2 68411  97.4160 336.0543 0176039  10.7329 349.7619 15.83817593   965
XINZHENGCHENG-01        
1 68412U 26066A   26092.99755543  .00001283  00000+0  13573-3 0  9992
2 68412  84.8508 275.7933 0023441 189.3714 170.7075 14.88095472   543
LIJIAN-2 R/B            
1 68413U 26066B   26090.76704925  .02524605 -11587-5  21175-3 0  9990
2 68413  84.7161 277.0200 0605231 206.6432 150.2503 15.04815352   201
2026-066C               
1 68414U 26066C   26093.80455066  .00002339  00000+0  22927-3 0  9998
2 68414  85.1331 274.8711 0065547  46.0550 314.6055 14.90103412   664
SL-4 R/B                
1 68537U 26061S   26093.48239779  .00234077  18898-4  69831-3 0  9994
2 68537  82.3045  96.5022 0025229  30.4387 329.8344 15.91758333  1719
2026-069B               
1 68539U 26069B   26092.55069444 -.00190496  11727-5 -71298-2 0  9993
2 68539  28.3448 359.8421 8430033  77.7942 194.3023  1.02407762    02
